FLOCK 2K-36             
1 42876U 17042BD  17342.90899886  .00001990  00000-0  60713-4 0  9995
2 42876  96.9947 244.1772 0014688  72.0015 288.2829 15.34933441 22439
FLOCK 2K-35             
1 42877U 17042BE  17342.77936125  .00004527  00000-0  13466-3 0  9990
2 42877  96.9939 244.0505 0014615  72.0648 288.2188 15.35102236 22413
FLOCK 2K-34             
1 42878U 17042BF  17342.77702525  .00007763  00000-0  22998-3 0  9991
2 42878  96.9941 244.0488 0014662  72.9667 287.3182 15.35008479 22417
FLOCK 2K-33             
1 42879U 17042BG  17342.77408435  .00007700  00000-0  22821-3 0  9991
2 42879  96.9942 244.0530 0014751  72.5866 287.6990 15.34999030 22414
FLOCK 2K-28             
1 42880U 17042BH  17342.68950717  .00001859  00000-0  58819-4 0  9994
2 42880  96.9948 243.8794 0014944  73.0374 287.2507 15.33852031 22390
LEMUR-2-ARTFISCHER      
1 42881U 17042BJ  17342.79524080  .00004129  00000-0  12533-3 0  9992
2 42881  96.9970 244.0792 0015508  73.6333 286.6615 15.34498292 22406
FLOCK 2K-27             
1 42882U 17042BK  17342.70775310  .00004814  00000-0  14375-3 0  9995
2 42882  96.9945 243.9984 0014853  73.0192 287.2678 15.34948906 22407
FLOCK 2K-26             
1 42883U 17042BL  17343.29174160  .00008135  00000-0  24138-3 0  9995
2 42883  96.9940 244.5549 0014791  69.8723 290.4111 15.34945093 22492
FLOCK 2K-25             
1 42884U 17042BM  17342.77572761  .00007549  00000-0  22382-3 0  9994
2 42884  96.9940 244.0487 0014693  72.6130 287.6719 15.34994912 22412
FLOCK 2K-20             
1 42885U 17042BN  17342.76873494  .00007400  00000-0  21967-3 0  9995
2 42885  96.9942 244.0647 0014875  71.3705 288.9153 15.34956675 22419
FLOCK 2K-19             
1 42886U 17042BP  17342.77179003  .00007424  00000-0  22045-3 0  9996
2 42886  96.9942 244.0627 0014861  71.8848 288.4014 15.34948753 22415
FLOCK 2K-18             
1 42887U 17042BQ  17342.69476190  .00008268  00000-0  24560-3 0  9996
2 42887  96.9940 244.0110 0015131  71.0493 289.2390 15.34899830 22406
FLOCK 2K-17             
1 42888U 17042BR  17342.69932074  .00003115  00000-0  94046-4 0  9998
2 42888  96.9936 243.9980 0015025  70.2047 290.0816 15.34861897 22408
FLOCK 2K-16             
1 42889U 17042BS  17343.48262517  .00002207  00000-0  67118-4 0  9996
2 42889  96.9943 244.7494 0014685  67.6472 292.6327 15.34925762 22529
FLOCK 2K-15             
1 42890U 17042BT  17342.69315043  .00002422  00000-0  73508-4 0  9992
2 42890  96.9949 244.0226 0014983  70.6563 289.6300 15.34896558 22403
FLOCK 2K-13             
1 42891U 17042BU  17343.48408660  .00001664  00000-0  51145-4 0  9999
2 42891  96.9942 244.7448 0015014  65.6334 294.6476 15.34920122 22524
FLOCK 2K-14             
1 42892U 17042BV  17343.47823169  .00001926  00000-0  58859-4 0  9994
2 42892  96.9939 244.7453 0015016  67.1279 293.1549 15.34913723 22528
FLOCK 2K-12             
1 42893U 17042BW  17343.53776807  .00008073  00000-0  23968-3 0  9990
2 42893  96.9945 244.8255 0015002  68.4629 291.8213 15.34925167 22534
FLOCK 2K-11             
1 42894U 17042BX  17343.54509997  .00002072  00000-0  63207-4 0  9990
2 42894  96.9944 244.8156 0014985  64.7239 295.5556 15.34902494 22538
FLOCK 2K-10             
1 42895U 17042BY  17343.47369693  .00002131  00000-0  64859-4 0  9990
2 42895  96.9943 244.7525 0015053  66.8435 293.4393 15.34931024 22521
FLOCK 2K-09             
1 42896U 17042BZ  17342.68873963  .00008252  00000-0  24499-3 0  9998
2 42896  96.9944 244.0214 0014918  69.0731 291.2108 15.34918664 22574
FLOCK 2K-06             
1 42897U 17042CA  17343.50900253  .00006351  00000-0  18859-3 0  9995
2 42897  96.9940 244.7155 0013316  78.5505 281.7234 15.35022894 22528
SILU-1 (SILKROAD 1)     
1 42903U 17021F   17343.55853627  .00017744  00000-0  18541-3 0  9993
2 42903  42.7804  30.0449 0007895  43.1140 107.3118 15.64113806 20162
FLOCK 3M-1              
1 42995U 17068J   17342.97742072  .00000854  00000-0  45010-4 0  9997
2 42995  97.3436  96.0509 0019400  92.9100 267.4355 15.18040704  5778
FLOCK 3M-3              
1 42996U 17068K   17343.23704746  .00000856  00000-0  44937-4 0  9993
2 42996  97.3392  96.2881 0018735  92.7117 267.6262 15.18201653  5817
FLOCK 3M-4              
1 42997U 17068L   17342.97145286  .00001767  00000-0  89118-4 0  9994
2 42997  97.3600  96.1503 0018534  94.7239 265.6113 15.18282862  5773
FLOCK 3M-2              
1 42998U 17068M   17342.96394210  .00000996  00000-0  51242-4 0  9997
2 42998  97.3504  96.1053 0016758  90.9200 269.3954 15.18583085  5774
ECAMSAT                 
1 43019U 98067NG  17343.11854859  .00004687  00000-0  75570-4 0  9999
2 43019  51.6394 246.1633 0005417 176.4864 183.6166 15.55019914 88956
ASTERIA                 
1 43020U 98067NH  17343.11773336  .00010475  00000-0  15875-3 0  9994
2 43020  51.6395 246.1587 0002839 164.0758 196.0323 15.55241262  2870
DELLINGR (RBLE)         
1 43021U 98067NJ  17343.11919734  .00006021  00000-0  95055-4 0  9990
2 43021  51.6394 246.1683 0002643 162.3741 197.7342 15.55015929  2871
TECHEDSAT 6             
1 43026U 98067NK  17343.16967121  .00045923  00000-0  62537-3 0  9995
2 43026  51.6388 245.7562 0003268 154.9889 205.1262 15.57071869  2786
OSIRIS-3U               
1 43027U 98067NL  17343.11325138  .00015218  00000-0  22317-3 0  9993
2 43027  51.6394 246.1287 0004659 146.3748 213.7539 15.55739671  2756
